[Satellite]
VERSION=1.1
NAME=BEIDOU 1D
NICKNAME=BEIDOU 1D
TLE1=1 30323U 07003A   11057.96182472 -.00000276  00000-0  10000-3 0  9758
TLE2=2 30323   2.7452 268.6834 0061091 328.5806  30.8011  0.99151365 15287
